[{"COMMENT":"GENERATED VIA SPACETRACK.ORG API","ORIGINATOR":"18 SPCS","NORAD_CAT_ID":"43476","OBJECT_NAME":"GRACE-FO 1","OBJECT_TYPE":"PAYLOAD","CLASSIFICATION_TYPE":"U","INTLDES":"18047A","EPOCH":"2023-11-12 21:01:37","EPOCH_MICROSECONDS":"756416","MEAN_MOTION":"15.27318058","ECCENTRICITY":"0.0013718","INCLINATION":"88.9813","RA_OF_ASC_NODE":"328.951","ARG_OF_PERICENTER":"172.4475","MEAN_ANOMALY":"187.6983","EPHEMERIS_TYPE":"0","ELEMENT_SET_NO":"999","REV_AT_EPOCH":"30468","BSTAR":"0.00013026","MEAN_MOTION_DOT":"0.00003521","MEAN_MOTION_DDOT":"0","FILE":"4086163","TLE_LINE0":"0 GRACE-FO 1","TLE_LINE1":"1 43476U 18047A   23316.87613144  .00003521  00000-0  13026-3 0  9999","TLE_LINE2":"2 43476  88.9813 328.9510 0013718 172.4475 187.6983 15.27318058304684","OBJECT_ID":"2018-047A","OBJECT_NUMBER":"43476","SEMIMAJOR_AXIS":"6861.971","PERIOD":"94.283","APOGEE":"493.249","PERIGEE":"474.422","DECAYED":"0"},{"COMMENT":"GENERATED VIA SPACETRACK.ORG API","ORIGINATOR":"18 SPCS","NORAD_CAT_ID":"43476","OBJECT_NAME":"GRACE-FO 1","OBJECT_TYPE":"PAYLOAD","CLASSIFICATION_TYPE":"U","INTLDES":"18047A","EPOCH":"2023-11-13 03:19:01","EPOCH_MICROSECONDS":"534944","MEAN_MOTION":"15.27320082","ECCENTRICITY":"0.0013773","INCLINATION":"88.9813","RA_OF_ASC_NODE":"328.9151","ARG_OF_PERICENTER":"171.4728","MEAN_ANOMALY":"188.6758","EPHEMERIS_TYPE":"0","ELEMENT_SET_NO":"999","REV_AT_EPOCH":"30472","BSTAR":"0.00013301","MEAN_MOTION_DOT":"0.00003595","MEAN_MOTION_DDOT":"0","FILE":"4086306","TLE_LINE0":"0 GRACE-FO 1","TLE_LINE1":"1 43476U 18047A   23317.13821221  .00003595  00000-0  13301-3 0  9993","TLE_LINE2":"2 43476  88.9813 328.9151 0013773 171.4728 188.6758 15.27320082304722","OBJECT_ID":"2018-047A","OBJECT_NUMBER":"43476","SEMIMAJOR_AXIS":"6861.964","PERIOD":"94.283","APOGEE":"493.280","PERIGEE":"474.379","DECAYED":"0"},{"COMMENT":"GENERATED VIA SPACETRACK.ORG API","ORIGINATOR":"18 SPCS","NORAD_CAT_ID":"43476","OBJECT_NAME":"GRACE-FO 1","OBJECT_TYPE":"PAYLOAD","CLASSIFICATION_TYPE":"U","INTLDES":"18047A","EPOCH":"2023-11-13 12:45:07","EPOCH_MICROSECONDS":"153920","MEAN_MOTION":"15.27323125","ECCENTRICITY":"0.0013846","INCLINATION":"88.9812","RA_OF_ASC_NODE":"328.8612","ARG_OF_PERICENTER":"169.9907","MEAN_ANOMALY":"190.1621","EPHEMERIS_TYPE":"0","ELEMENT_SET_NO":"999","REV_AT_EPOCH":"30478","BSTAR":"0.00013874","MEAN_MOTION_DOT":"0.00003749","MEAN_MOTION_DDOT":"0","FILE":"4087425","TLE_LINE0":"0 GRACE-FO 1","TLE_LINE1":"1 43476U 18047A   23317.53133280  .00003749  00000-0  13874-3 0  9994","TLE_LINE2":"2 43476  88.9812 328.8612 0013846 169.9907 190.1621 15.27323125304788","OBJECT_ID":"2018-047A","OBJECT_NUMBER":"43476","SEMIMAJOR_AXIS":"6861.955","PERIOD":"94.283","APOGEE":"493.321","PERIGEE":"474.319","DECAYED":"0"},{"COMMENT":"GENERATED VIA SPACETRACK.ORG API","ORIGINATOR":"18 SPCS","NORAD_CAT_ID":"43476","OBJECT_NAME":"GRACE-FO 1","OBJECT_TYPE":"PAYLOAD","CLASSIFICATION_TYPE":"U","INTLDES":"18047A","EPOCH":"2023-11-13 22:11:12","EPOCH_MICROSECONDS":"719328","MEAN_MOTION":"15.27325846","ECCENTRICITY":"0.0013914","INCLINATION":"88.9812","RA_OF_ASC_NODE":"328.8073","ARG_OF_PERICENTER":"168.5244","MEAN_ANOMALY":"191.6326","EPHEMERIS_TYPE":"0","ELEMENT_SET_NO":"999","REV_AT_EPOCH":"30484","BSTAR":"0.00014021","MEAN_MOTION_DOT":"0.00003789","MEAN_MOTION_DDOT":"0","FILE":"4087875","TLE_LINE0":"0 GRACE-FO 1","TLE_LINE1":"1 43476U 18047A   23317.92445277  .00003789  00000-0  14021-3 0  9998","TLE_LINE2":"2 43476  88.9812 328.8073 0013914 168.5244 191.6326 15.27325846304841","OBJECT_ID":"2018-047A","OBJECT_NUMBER":"43476","SEMIMAJOR_AXIS":"6861.947","PERIOD":"94.282","APOGEE":"493.360","PERIGEE":"474.265","DECAYED":"0"},{"COMMENT":"GENERATED VIA SPACETRACK.ORG API","ORIGINATOR":"18 SPCS","NORAD_CAT_ID":"43476","OBJECT_NAME":"GRACE-FO 1","OBJECT_TYPE":"PAYLOAD","CLASSIFICATION_TYPE":"U","INTLDES":"18047A","EPOCH":"2023-11-14 10:46:00","EPOCH_MICROSECONDS":"42240","MEAN_MOTION":"15.27328958","ECCENTRICITY":"0.0014007","INCLINATION":"88.9812","RA_OF_ASC_NODE":"328.7354","ARG_OF_PERICENTER":"166.5826","MEAN_ANOMALY":"193.5799","EPHEMERIS_TYPE":"0","ELEMENT_SET_NO":"999","REV_AT_EPOCH":"30492","BSTAR":"0.00013389","MEAN_MOTION_DOT":"0.0000362","MEAN_MOTION_DDOT":"0","FILE":"4088634","TLE_LINE0":"0 GRACE-FO 1","TLE_LINE1":"1 43476U 18047A   23318.44861160  .00003620  00000-0  13389-3 0  9999","TLE_LINE2":"2 43476  88.9812 328.7354 0014007 166.5826 193.5799 15.27328958304921","OBJECT_ID":"2018-047A","OBJECT_NUMBER":"43476","SEMIMAJOR_AXIS":"6861.938","PERIOD":"94.282","APOGEE":"493.414","PERIGEE":"474.191","DECAYED":"0"},{"COMMENT":"GENERATED VIA SPACETRACK.ORG API","ORIGINATOR":"18 SPCS","NORAD_CAT_ID":"43476","OBJECT_NAME":"GRACE-FO 1","OBJECT_TYPE":"PAYLOAD","CLASSIFICATION_TYPE":"U","INTLDES":"18047A","EPOCH":"2023-11-14 13:54:41","EPOCH_MICROSECONDS":"852448","MEAN_MOTION":"15.27330009","ECCENTRICITY":"0.0014025","INCLINATION":"88.9811","RA_OF_ASC_NODE":"328.7175","ARG_OF_PERICENTER":"166.0954","MEAN_ANOMALY":"194.0685","EPHEMERIS_TYPE":"0","ELEMENT_SET_NO":"999","REV_AT_EPOCH":"30494","BSTAR":"0.00013669","MEAN_MOTION_DOT":"0.00003695","MEAN_MOTION_DDOT":"0","FILE":"4089264","TLE_LINE0":"0 GRACE-FO 1","TLE_LINE1":"1 43476U 18047A   23318.57965107  .00003695  00000-0  13669-3 0  9992","TLE_LINE2":"2 43476  88.9811 328.7175 0014025 166.0954 194.0685 15.27330009304940","OBJECT_ID":"2018-047A","OBJECT_NUMBER":"43476","SEMIMAJOR_AXIS":"6861.935","PERIOD":"94.282","APOGEE":"493.424","PERIGEE":"474.176","DECAYED":"0"},{"COMMENT":"GENERATED VIA SPACETRACK.ORG API","ORIGINATOR":"18 SPCS","NORAD_CAT_ID":"43476","OBJECT_NAME":"GRACE-FO 1","OBJECT_TYPE":"PAYLOAD","CLASSIFICATION_TYPE":"U","INTLDES":"18047A","EPOCH":"2023-11-14 21:46:26","EPOCH_MICROSECONDS":"330880","MEAN_MOTION":"15.27332701","ECCENTRICITY":"0.0014087","INCLINATION":"88.9811","RA_OF_ASC_NODE":"328.6726","ARG_OF_PERICENTER":"164.9119","MEAN_ANOMALY":"195.2554","EPHEMERIS_TYPE":"0","ELEMENT_SET_NO":"999","REV_AT_EPOCH":"30499","BSTAR":"0.00013918","MEAN_MOTION_DOT":"0.00003762","MEAN_MOTION_DDOT":"0","FILE":"4089734","TLE_LINE0":"0 GRACE-FO 1","TLE_LINE1":"1 43476U 18047A   23318.90724920  .00003762  00000-0  13918-3 0  9997","TLE_LINE2":"2 43476  88.9811 328.6726 0014087 164.9119 195.2554 15.27332701304993","OBJECT_ID":"2018-047A","OBJECT_NUMBER":"43476","SEMIMAJOR_AXIS":"6861.927","PERIOD":"94.282","APOGEE":"493.458","PERIGEE":"474.125","DECAYED":"0"},{"COMMENT":"GENERATED VIA SPACETRACK.ORG API","ORIGINATOR":"18 SPCS","NORAD_CAT_ID":"43476","OBJECT_NAME":"GRACE-FO 1","OBJECT_TYPE":"PAYLOAD","CLASSIFICATION_TYPE":"U","INTLDES":"18047A","EPOCH":"2023-11-15 13:29:55","EPOCH_MICROSECONDS":"179744","MEAN_MOTION":"15.27336841","ECCENTRICITY":"0.001421","INCLINATION":"88.9811","RA_OF_ASC_NODE":"328.5827","ARG_OF_PERICENTER":"162.6211","MEAN_ANOMALY":"197.5528","EPHEMERIS_TYPE":"0","ELEMENT_SET_NO":"999","REV_AT_EPOCH":"30509","BSTAR":"0.00012922","MEAN_MOTION_DOT":"0.00003496","MEAN_MOTION_DDOT":"0","FILE":"4090840","TLE_LINE0":"0 GRACE-FO 1","TLE_LINE1":"1 43476U 18047A   23319.56244421  .00003496  00000-0  12922-3 0  9991","TLE_LINE2":"2 43476  88.9811 328.5827 0014210 162.6211 197.5528 15.27336841305097","OBJECT_ID":"2018-047A","OBJECT_NUMBER":"43476","SEMIMAJOR_AXIS":"6861.914","PERIOD":"94.282","APOGEE":"493.530","PERIGEE":"474.029","DECAYED":"0"},{"COMMENT":"GENERATED VIA SPACETRACK.ORG API","ORIGINATOR":"18 SPCS","NORAD_CAT_ID":"43476","OBJECT_NAME":"GRACE-FO 1","OBJECT_TYPE":"PAYLOAD","CLASSIFICATION_TYPE":"U","INTLDES":"18047A","EPOCH":"2023-11-15 19:47:18","EPOCH_MICROSECONDS":"683520","MEAN_MOTION":"15.27338548","ECCENTRICITY":"0.0014257","INCLINATION":"88.9812","RA_OF_ASC_NODE":"328.5467","ARG_OF_PERICENTER":"161.6645","MEAN_ANOMALY":"198.5121","EPHEMERIS_TYPE":"0","ELEMENT_SET_NO":"999","REV_AT_EPOCH":"30513","BSTAR":"0.00012786","MEAN_MOTION_DOT":"0.0000346","MEAN_MOTION_DDOT":"0","FILE":"4090895","TLE_LINE0":"0 GRACE-FO 1","TLE_LINE1":"1 43476U 18047A   23319.82452180  .00003460  00000-0  12786-3 0  9992","TLE_LINE2":"2 43476  88.9812 328.5467 0014257 161.6645 198.5121 15.27338548305130","OBJECT_ID":"2018-047A","OBJECT_NUMBER":"43476","SEMIMAJOR_AXIS":"6861.909","PERIOD":"94.282","APOGEE":"493.557","PERIGEE":"473.991","DECAYED":"0"},{"COMMENT":"GENERATED VIA SPACETRACK.ORG API","ORIGINATOR":"18 SPCS","NORAD_CAT_ID":"43476","OBJECT_NAME":"GRACE-FO 1","OBJECT_TYPE":"PAYLOAD","CLASSIFICATION_TYPE":"U","INTLDES":"18047A","EPOCH":"2023-11-15 21:21:39","EPOCH_MICROSECONDS":"553632","MEAN_MOTION":"15.27339254","ECCENTRICITY":"0.0014267","INCLINATION":"88.9811","RA_OF_ASC_NODE":"328.5377","ARG_OF_PERICENTER":"161.4351","MEAN_ANOMALY":"198.7422","EPHEMERIS_TYPE":"0","ELEMENT_SET_NO":"999","REV_AT_EPOCH":"30514","BSTAR":"0.00013116","MEAN_MOTION_DOT":"0.00003548","MEAN_MOTION_DDOT":"0","FILE":"4091289","TLE_LINE0":"0 GRACE-FO 1","TLE_LINE1":"1 43476U 18047A   23319.89004113  .00003548  00000-0  13116-3 0  9993","TLE_LINE2":"2 43476  88.9811 328.5377 0014267 161.4351 198.7422 15.27339254305144","OBJECT_ID":"2018-047A","OBJECT_NUMBER":"43476","SEMIMAJOR_AXIS":"6861.907","PERIOD":"94.282","APOGEE":"493.562","PERIGEE":"473.982","DECAYED":"0"}]